#aP2023 10 20 00 00  600    1
## 1
+  1    1
*  2023 10 20  6 40  0.00000000
P  1      5171.915327      4717.127500         0.000000  99.999999
*  2023 10 20  6 41  0.00000000
P  1      4856.207317      5041.552389         0.000000  99.999999
*  2023 10 20  6 42  0.00000000
P  1      4520.190148      5344.892986         0.000000  99.999999
*  2023 10 20  6 43  0.00000000
P  1      4165.269077      5625.880688         0.000000  99.999999
*  2023 10 20  6 44  0.00000000
P  1      3792.928421      5883.340377         0.000000  99.999999
*  2023 10 20  6 45  0.00000000
P  1      3404.725347      6116.195330         0.000000  99.999999
*  2023 10 20  6 46  0.00000000
P  1      3002.283360      6323.471723         0.000000  99.999999
*  2023 10 20  6 47  0.00000000
P  1      2587.285515      6504.302704         0.000000  99.999999
*  2023 10 20  6 48  0.00000000
P  1      2161.467374      6657.932021         0.000000  99.999999
*  2023 10 20  6 49  0.00000000
P  1      1726.609754      6783.717178         0.000000  99.999999
*  2023 10 20  6 50  0.00000000
P  1      1284.531274      6881.132131         0.000000  99.999999
*  2023 10 20  6 51  0.00000000
P  1       837.080752      6949.769479         0.000000  99.999999
*  2023 10 20  6 52  0.00000000
P  1       386.129471      6989.342174         0.000000  99.999999
*  2023 10 20  6 53  0.00000000
P  1       -66.436643      6999.684720         0.000000  99.999999
*  2023 10 20  6 54  0.00000000
P  1      -518.724912      6980.753861         0.000000  99.999999
*  2023 10 20  6 55  0.00000000
P  1      -968.843820      6932.628769         0.000000  99.999999
*  2023 10 20  6 56  0.00000000
P  1     -1414.910923      6855.510709         0.000000  99.999999
*  2023 10 20  6 57  0.00000000
P  1     -1855.060722      6749.722196         0.000000  99.999999
*  2023 10 20  6 58  0.00000000
P  1     -2287.452466      6615.705647         0.000000  99.999999
*  2023 10 20  6 59  0.00000000
P  1     -2710.277848      6454.021536         0.000000  99.999999
*  2023 10 20  7  0  0.00000000
P  1     -3121.768569      6265.346040         0.000000  99.999999
*  2023 10 20  7  1  0.00000000
P  1     -3520.203731      6050.468221         0.000000  99.999999
*  2023 10 20  7  2  0.00000000
P  1     -3903.917038      5810.286719         0.000000  99.999999
*  2023 10 20  7  3  0.00000000
P  1     -4271.303761      5545.805999         0.000000  99.999999
*  2023 10 20  7  4  0.00000000
P  1     -4620.827451      5258.132146         0.000000  99.999999
*  2023 10 20  7  5  0.00000000
P  1     -4951.026364      4948.468242         0.000000  99.999999
*  2023 10 20  7  6  0.00000000
P  1     -5260.519574      4618.109333         0.000000  99.999999
*  2023 10 20  7  7  0.00000000
P  1     -5548.012748      4268.437015         0.000000  99.999999
*  2023 10 20  7  8  0.00000000
P  1     -5812.303561      3900.913652         0.000000  99.999999
*  2023 10 20  7  9  0.00000000
P  1     -6052.286720      3517.076266         0.000000  99.999999
*  2023 10 20  7 10  0.00000000
P  1     -6266.958592      3118.530104         0.000000  99.999999
*  2023 10 20  7 11  0.00000000
P  1     -6455.421396      2706.941928         0.000000  99.999999
*  2023 10 20  7 12  0.00000000
P  1     -6616.886962      2284.033041         0.000000  99.999999
*  2023 10 20  7 13  0.00000000
P  1     -6750.680024      1851.572092         0.000000  99.999999
*  2023 10 20  7 14  0.00000000
P  1     -6856.241046      1411.367678         0.000000  99.999999
*  2023 10 20  7 15  0.00000000
P  1     -6933.128560       965.260778         0.000000  99.999999
*  2023 10 20  7 16  0.00000000
P  1     -6981.021015       515.117059         0.000000  99.999999
*  2023 10 20  7 17  0.00000000
P  1     -6999.718120        62.819066         0.000000  99.999999
*  2023 10 20  7 18  0.00000000
P  1     -6989.141682      -389.741642         0.000000  99.999999
*  2023 10 20  7 19  0.00000000
P  1     -6949.335932      -840.672410         0.000000  99.999999
*  2023 10 20  7 20  0.00000000
P  1     -6880.467342     -1288.087400         0.000000  99.999999
*  2023 10 20  7 21  0.00000000
P  1     -6782.823928     -1730.115475         0.000000  99.999999
*  2023 10 20  7 22  0.00000000
P  1     -6656.814045     -2164.908029         0.000000  99.999999
*  2023 10 20  7 23  0.00000000
P  1     -6502.964678     -2590.646714         0.000000  99.999999
*  2023 10 20  7 24  0.00000000
P  1     -6321.919242     -3005.551047         0.000000  99.999999
*  2023 10 20  7 25  0.00000000
P  1     -6114.434887     -3407.885856         0.000000  99.999999
*  2023 10 20  7 26  0.00000000
P  1     -5881.379335     -3795.968534         0.000000  99.999999
*  2023 10 20  7 27  0.00000000
P  1     -5623.727248     -4168.176081         0.000000  99.999999
*  2023 10 20  7 28  0.00000000
P  1     -5342.556153     -4522.951885         0.000000  99.999999
*  2023 10 20  7 29  0.00000000
P  1     -5039.041937     -4858.812237         0.000000  99.999999
*  2023 10 20  7 30  0.00000000
P  1     -4714.453928     -5174.352535         0.000000  99.999999
*  2023 10 20  7 31  0.00000000
P  1     -4370.149586     -5468.253158         0.000000  99.999999
*  2023 10 20  7 32  0.00000000
P  1     -4007.568828     -5739.284981         0.000000  99.999999
*  2023 10 20  7 33  0.00000000
P  1     -3628.228003     -5986.314522         0.000000  99.999999
*  2023 10 20  7 34  0.00000000
P  1     -3233.713554     -6208.308679         0.000000  99.999999
*  2023 10 20  7 35  0.00000000
P  1     -2825.675382     -6404.339048         0.000000  99.999999
*  2023 10 20  7 36  0.00000000
P  1     -2405.819944     -6573.585810         0.000000  99.999999
*  2023 10 20  7 37  0.00000000
P  1     -1975.903118     -6715.341158         0.000000  99.999999
*  2023 10 20  7 38  0.00000000
P  1     -1537.722862     -6829.012257         0.000000  99.999999
*  2023 10 20  7 39  0.00000000
P  1     -1093.111690     -6914.123721         0.000000  99.999999
*  2023 10 20  7 40  0.00000000
P  1      -643.929012     -6970.319607         0.000000  99.999999
*  2023 10 20  7 41  0.00000000
P  1      -192.053357     -6997.364897         0.000000  99.999999
*  2023 10 20  7 42  0.00000000
P  1       260.625486     -6995.146486         0.000000  99.999999
*  2023 10 20  7 43  0.00000000
P  1       712.214365     -6963.673650         0.000000  99.999999
*  2023 10 20  7 44  0.00000000
P  1      1160.824691     -6903.078012         0.000000  99.999999
*  2023 10 20  7 45  0.00000000
P  1      1604.580328     -6813.612990         0.000000  99.999999
*  2023 10 20  7 46  0.00000000
P  1      2041.625445     -6695.652735         0.000000  99.999999
*  2023 10 20  7 47  0.00000000
P  1      2470.132273     -6549.690569         0.000000  99.999999
*  2023 10 20  7 48  0.00000000
P  1      2888.308753     -6376.336922         0.000000  99.999999
*  2023 10 20  7 49  0.00000000
P  1      3294.406028     -6176.316776         0.000000  99.999999
*  2023 10 20  7 50  0.00000000
P  1      3686.725757     -5950.466636         0.000000  99.999999
*  2023 10 20  7 51  0.00000000
P  1      4063.627219     -5699.731031         0.000000  99.999999
*  2023 10 20  7 52  0.00000000
P  1      4423.534172     -5425.158562         0.000000  99.999999
*  2023 10 20  7 53  0.00000000
P  1      4764.941450     -5127.897521         0.000000  99.999999
*  2023 10 20  7 54  0.00000000
P  1      5086.421250     -4809.191083         0.000000  99.999999
*  2023 10 20  7 55  0.00000000
P  1      5386.629112     -4470.372111         0.000000  99.999999
*  2023 10 20  7 56  0.00000000
P  1      5664.309535     -4112.857583         0.000000  99.999999
*  2023 10 20  7 57  0.00000000
P  1      5918.301231     -3738.142659         0.000000  99.999999
*  2023 10 20  7 58  0.00000000
P  1      6147.541981     -3347.794437         0.000000  99.999999
*  2023 10 20  7 59  0.00000000
P  1      6351.073076     -2943.445394         0.000000  99.999999
*  2023 10 20  8  0  0.00000000
P  1      6528.043328     -2526.786558         0.000000  99.999999
*  2023 10 20  8  1  0.00000000
P  1      6677.712629     -2099.560440         0.000000  99.999999
*  2023 10 20  8  2  0.00000000
P  1      6799.455047     -1663.553744         0.000000  99.999999
*  2023 10 20  8  3  0.00000000
P  1      6892.761443     -1220.589894         0.000000  99.999999
*  2023 10 20  8  4  0.00000000
P  1      6957.241599      -772.521411         0.000000  99.999999
*  2023 10 20  8  5  0.00000000
P  1      6992.625853      -321.222164         0.000000  99.999999
*  2023 10 20  8  6  0.00000000
P  1      6998.766224       131.420467         0.000000  99.999999
*  2023 10 20  8  7  0.00000000
P  1      6975.637033       583.513484         0.000000  99.999999
*  2023 10 20  8  8  0.00000000
P  1      6923.335008      1033.166187         0.000000  99.999999
*  2023 10 20  8  9  0.00000000
P  1      6842.078881      1478.498083         0.000000  99.999999
*  2023 10 20  8 10  0.00000000
P  1      6732.208475      1917.646748         0.000000  99.999999
*  2023 10 20  8 11  0.00000000
P  1      6594.183278      2348.775615         0.000000  99.999999
*  2023 10 20  8 12  0.00000000
P  1      6428.580527      2770.081661         0.000000  99.999999
*  2023 10 20  8 13  0.00000000
P  1      6236.092788      3179.802940         0.000000  99.999999
*  2023 10 20  8 14  0.00000000
P  1      6017.525066      3576.225955         0.000000  99.999999
*  2023 10 20  8 15  0.00000000
P  1      5773.791433      3957.692823         0.000000  99.999999
*  2023 10 20  8 16  0.00000000
P  1      5505.911209      4322.608212         0.000000  99.999999
*  2023 10 20  8 17  0.00000000
P  1      5215.004696      4669.446008         0.000000  99.999999
*  2023 10 20  8 18  0.00000000
P  1      4902.288496      4996.755698         0.000000  99.999999
*  2023 10 20  8 19  0.00000000
P  1      4569.070419      5303.168441         0.000000  99.999999
